QIANFAN-105             
1 66047U 25233Q   25338.62448740  .00000187  00000+0  11898-3 0  9999
2 66047  88.9965  63.0268 0017220  66.7515 293.5475 13.99259363  6851
QIANFAN-106             
1 66048U 25233R   25338.65635192  .00000268  00000+0  18548-3 0  9991
2 66048  88.9960  63.0304 0017730  65.6859 294.6167 13.96120425  6856
QIANFAN-107             
1 66049U 25233S   25337.70136412  .00000218  00000+0  14793-3 0  9991
2 66049  88.9943  63.1349 0015669  74.9410 285.3499 13.96344546  6726
QIANFAN-108             
1 66050U 25233T   25337.78291421  .00000296  00000+0  20627-3 0  9992
2 66050  88.9962  63.1237 0016806  71.5015 288.7986 13.96034061  6730
